{
  "norad_id": 56704,
  "name": "STARLINK-30066",
  "history": [
    {
      "epoch": "2026-03-28T22:08:29.247072",
      "apogee_km": 484.38003735984057,
      "perigee_km": 481.7178972045349,
      "latitude_deg": 21.281275258177605,
      "longitude_deg": -61.03416992002167,
      "semi_major_axis_km": 6861.185967282187,
      "eccentricity": 0.000194,
      "inclination_deg": 43.005,
      "raan_deg": 162.2377,
      "arg_perigee_deg": 263.9288,
      "mean_anomaly_deg": 96.1342,
      "mean_motion_rev_day": 15.27580043
    }
  ]
}